TIANMU-1 15             
1 58700U 24004A   24020.78534727  .00007909  00000+0  44092-3 0  9997
2 58700  97.4567 204.8474 0010725 199.5981 160.4840 15.13802726  2310
TIANMU-1 16             
1 58701U 24004B   24020.12041429  .00007219  00000+0  39764-3 0  9992
2 58701  97.4494 204.1903 0010924 208.5387 151.5248 15.14265106  2210
TIANMU-1 17             
1 58702U 24004C   24020.77973829  .00007913  00000+0  43356-3 0  9995
2 58702  97.4539 204.8487 0010208 208.2027 151.8653 15.14430044  2306
TIANMU-1 18             
1 58703U 24004D   24020.84184143  .00007586  00000+0  41116-3 0  9995
2 58703  97.4555 204.9217 0010798 217.7126 142.3350 15.14824359  2312
STARLINK-31109          
1 58687U 23211W   24019.83166837  .00125733  00000+0  14021-2 0  9991
2 58687  42.9993 162.7818 0003342 269.6743  90.3738 15.61655851  3279
STARLINK-31139          
1 58688U 23211X   24020.58334491  .00021232  00000+0  38902-3 0  9993
2 58688  42.9996 158.6011 0002009 251.3617 263.4816 15.48903354  4707
STARLINK-31106          
1 58689U 23211Y   24020.58334491  .00052082  00000+0  94219-3 0  9994
2 58689  42.9995 158.6083 0001795 249.3933 262.9202 15.48890335  4601
HULIANWANG JISHU SHIYAN*
1 58691U 23212A   24020.81568085  .00000062  00000+0  17594-3 0  9994
2 58691  50.0026 342.5916 0007799  14.5878 345.5243 13.86993469  3039
HULIANWANG JISHU SHIYAN*
1 58692U 23212B   24020.80989585  .00000041  00000+0  15790-3 0  9999
2 58692  49.9995 342.5571 0004818   1.0370 359.0536 13.86965930  3033
HULIANWANG JISHU SHIYAN*
1 58693U 23212C   24020.81268523  .00000046  00000+0  16191-3 0  9994
2 58693  50.0008 342.5737 0007000 357.5571   2.5291 13.86991987  3033
XPOSAT                  
1 58694U 24001A   24001.68468223  .00000628  00000+0  00000+0 0  9999
2 58694   5.9870 115.4463 0010488 359.8378  55.4280 14.74838619    62
POEM-3                  
1 58695U 24001B   24004.74596408  .00097489  00000+0  61795-3 0  9990
2 58695   9.6657  72.7054 0007217  17.8593 342.1874 15.74486494   565
OVZON-3                 
1 58698U 24003A   24020.00025463 -.00000269  00000+0  00000+0 0  9999
2 58698  24.4594 291.5716 7408202 186.4093  73.6687  1.44180727   259
FALCON 9 R/B            
1 58699U 24003B   24013.87320111  .00009612  00000+0  53597-2 0  9997
2 58699  26.7161 292.9529 7795204 184.4487 157.8642  1.66282490   179
STARLINK-11072 [DTC]    
1 58705U 24002A   24020.74800782  .00081798  00000+0  67333-3 0  9994
2 58705  53.1605 161.4109 0001365  76.1867 283.9302 15.69711815  3946
STARLINK-11075 [DTC]    
1 58706U 24002B   24020.74577259  .00116845  00000+0  95366-3 0  9994
2 58706  53.1604 161.3956 0001387  39.4227 320.6892 15.69763501  3943
STARLINK-11077 [DTC]    
1 58707U 24002C   24020.80478345  .00004381  00000+0  40928-4 0  9994
2 58707  53.1570 161.0473 0001913  57.4615 302.6587 15.69760714  3958
STARLINK-11079 [DTC]    
1 58708U 24002D   24020.79972388  .00095373  00000+0  78216-3 0  9990
2 58708  53.1574 161.0188 0001135 129.8128 230.2990 15.69737524  3952
STARLINK-11076 [DTC]    
1 58709U 24002E   24020.58414225  .00089057  00000+0  73256-3 0  9990
2 58709  53.1591 161.8073 0001269  31.1562 328.9531 15.69693653  3970
STARLINK-11078 [DTC]    
1 58710U 24002F   24020.77740588  .00090974  00000+0  74843-3 0  9990
2 58710  53.1588 160.8796 0001028 139.6769 220.4326 15.69681514  3954
STARLINK-31031          
1 58711U 24002G   24020.91667824 -.00688569  00000+0 -26485-1 0  9990
2 58711  53.1590 162.1474 0000667 108.7784  66.9230 15.28487579  3843
STARLINK-31029          
1 58712U 24002H   24020.58334491 -.02218247  00000+0 -78081-1 0  9998
2 58712  53.1595 164.0552 0000810  85.8819 227.8323 15.32427535  3832
STARLINK-30973          
1 58713U 24002J   24020.91667824 -.02188728  00000+0 -80648-1 0  9997
2 58713  53.1595 162.4996 0000981  83.0315 271.3242 15.30925235  3963
STARLINK-31100          
1 58714U 24002K   24020.58334491 -.02223138  00000+0 -73456-1 0  9996
2 58714  53.1595 164.0192 0001007 104.2344 227.0634 15.34419424  3996
STARLINK-31102          
1 58715U 24002L   24020.58334491 -.02223132  00000+0 -73258-1 0  9991
2 58715  53.1594 164.0164 0000959  80.2201 252.5290 15.34503860  3882
STARLINK-31098          
1 58716U 24002M   24020.58334491 -.02226700  00000+0 -69009-1 0  9995
2 58716  53.1594 163.9902 0000938  90.8011 255.0599 15.36410239  3951
STARLINK-31093          
1 58717U 24002N   24020.58334491 -.02225875  00000+0 -68794-1 0  9998
2 58717  53.1594 163.9875 0000828  87.8090 259.3732 15.36494417  3835
STARLINK-31097          
1 58718U 24002P   24020.91667824 -.02184366  00000+0 -66682-1 0  9998
2 58718  53.1590 162.4025 0001389  26.7560  16.7792 15.36803549  3965
STARLINK-31051          
1 58719U 24002Q   24020.58334491 -.02221928  00000+0 -64339-1 0  9996
2 58719  53.1591 163.9657 0000976  90.2306 268.3642 15.38479238  3830
STARLINK-31027          
1 58720U 24002R   24020.91667824 -.02192557  00000+0 -62724-1 0  9995
2 58720  53.1587 162.3813 0001301  68.8034 345.6350 15.38798182  3844
