OBJECT_NAME,OBJECT_ID,EPOCH,MEAN_MOTION,ECCENTRICITY,INCLINATION,RA_OF_ASC_NODE,ARG_OF_PERICENTER,MEAN_ANOMALY,EPHEMERIS_TYPE,CLASSIFICATION_TYPE,NORAD_CAT_ID,ELEMENT_SET_NO,REV_AT_EPOCH,BSTAR,MEAN_MOTION_DOT,MEAN_MOTION_DDOT
STARLINK-31109,2023-211W,2024-01-19T19:57:36.147168,15.61655851,.0003342,42.9993,162.7818,269.6743,90.3738,0,U,58687,999,327,.14021E-2,.125733E-2,0
STARLINK-31139,2023-211X,2024-01-20T14:00:01.000224,15.48903354,.0002009,42.9996,158.6011,251.3617,263.4816,0,U,58688,999,470,.38902E-3,.21232E-3,0
STARLINK-31106,2023-211Y,2024-01-20T14:00:01.000224,15.48890335,.0001795,42.9995,158.6083,249.3933,262.9202,0,U,58689,999,460,.94219E-3,.52082E-3,0
HULIANWANG JISHU SHIYAN 4A,2023-212A,2024-01-20T19:34:34.825440,13.86993469,.0007799,50.0026,342.5916,14.5878,345.5243,0,U,58691,999,303,.17594E-3,.62E-6,0
HULIANWANG JISHU SHIYAN 4B,2023-212B,2024-01-20T19:26:15.001440,13.86965930,.0004818,49.9995,342.5571,1.0370,359.0536,0,U,58692,999,303,.1579E-3,.41E-6,0
HULIANWANG JISHU SHIYAN 4C,2023-212C,2024-01-20T19:30:16.003872,13.86991987,.0007,50.0008,342.5737,357.5571,2.5291,0,U,58693,999,303,.16191E-3,.46E-6,0
XPOSAT,2024-001A,2024-01-01T16:25:56.544672,14.74838619,.0010488,5.9870,115.4463,359.8378,55.4280,0,U,58694,999,6,0,.628E-5,0
POEM-3,2024-001B,2024-01-04T17:54:11.296512,15.74486494,.0007217,9.6657,72.7054,17.8593,342.1874,0,U,58695,999,56,.61795E-3,.97489E-3,0
OVZON-3,2024-003A,2024-01-20T00:00:22.000032,1.44180727,.7408202,24.4594,291.5716,186.4093,73.6687,0,U,58698,999,25,0,-.269E-5,0
FALCON 9 R/B,2024-003B,2024-01-13T20:57:24.575904,1.66282490,.7795204,26.7161,292.9529,184.4487,157.8642,0,U,58699,999,17,.53597E-2,.9612E-4,0
TIANMU-1 15,2024-004A,2024-01-20T18:50:54.004128,15.13802726,.0010725,97.4567,204.8474,199.5981,160.4840,0,U,58700,999,231,.44092E-3,.7909E-4,0
TIANMU-1 16,2024-004B,2024-01-20T02:53:23.794656,15.14265106,.0010924,97.4494,204.1903,208.5387,151.5248,0,U,58701,999,221,.39764E-3,.7219E-4,0
TIANMU-1 17,2024-004C,2024-01-20T18:42:49.388256,15.14430044,.0010208,97.4539,204.8487,208.2027,151.8653,0,U,58702,999,230,.43356E-3,.7913E-4,0
TIANMU-1 18,2024-004D,2024-01-20T20:12:15.099552,15.14824359,.0010798,97.4555,204.9217,217.7126,142.3350,0,U,58703,999,231,.41116E-3,.7586E-4,0
STARLINK-11072 [DTC],2024-002A,2024-01-20T17:57:07.875648,15.69711815,.0001365,53.1605,161.4109,76.1867,283.9302,0,U,58705,999,394,.67333E-3,.81798E-3,0
STARLINK-11075 [DTC],2024-002B,2024-01-20T17:53:54.751776,15.69763501,.0001387,53.1604,161.3956,39.4227,320.6892,0,U,58706,999,394,.95366E-3,.116845E-2,0
STARLINK-11077 [DTC],2024-002C,2024-01-20T19:18:53.290080,15.69760714,.0001913,53.1570,161.0473,57.4615,302.6587,0,U,58707,999,395,.40928E-4,.4381E-4,0
STARLINK-11079 [DTC],2024-002D,2024-01-20T19:11:36.143232,15.69737524,.0001135,53.1574,161.0188,129.8128,230.2990,0,U,58708,999,395,.78216E-3,.95373E-3,0
STARLINK-11076 [DTC],2024-002E,2024-01-20T14:01:09.890400,15.69693653,.0001269,53.1591,161.8073,31.1562,328.9531,0,U,58709,999,397,.73256E-3,.89057E-3,0
STARLINK-11078 [DTC],2024-002F,2024-01-20T18:39:27.868032,15.69681514,.0001028,53.1588,160.8796,139.6769,220.4326,0,U,58710,999,395,.74843E-3,.90974E-3,0
STARLINK-31031,2024-002G,2024-01-20T22:00:00.999936,15.28487579,.0000667,53.1590,162.1474,108.7784,66.9230,0,U,58711,999,384,-.26485E-1,-.688569E-2,0
STARLINK-31029,2024-002H,2024-01-20T14:00:01.000224,15.32427535,.000081,53.1595,164.0552,85.8819,227.8323,0,U,58712,999,383,-.78081E-1,-.2218247E-1,0
STARLINK-30973,2024-002J,2024-01-20T22:00:00.999936,15.30925235,.0000981,53.1595,162.4996,83.0315,271.3242,0,U,58713,999,396,-.80648E-1,-.2188728E-1,0
STARLINK-31100,2024-002K,2024-01-20T14:00:01.000224,15.34419424,.0001007,53.1595,164.0192,104.2344,227.0634,0,U,58714,999,399,-.73456E-1,-.2223138E-1,0
STARLINK-31102,2024-002L,2024-01-20T14:00:01.000224,15.34503860,.0000959,53.1594,164.0164,80.2201,252.5290,0,U,58715,999,388,-.73258E-1,-.2223132E-1,0
STARLINK-31098,2024-002M,2024-01-20T14:00:01.000224,15.36410239,.0000938,53.1594,163.9902,90.8011,255.0599,0,U,58716,999,395,-.69009E-1,-.22267E-1,0
STARLINK-31093,2024-002N,2024-01-20T14:00:01.000224,15.36494417,.0000828,53.1594,163.9875,87.8090,259.3732,0,U,58717,999,383,-.68794E-1,-.2225875E-1,0
STARLINK-31097,2024-002P,2024-01-20T22:00:00.999936,15.36803549,.0001389,53.1590,162.4025,26.7560,16.7792,0,U,58718,999,396,-.66682E-1,-.2184366E-1,0
STARLINK-31051,2024-002Q,2024-01-20T14:00:01.000224,15.38479238,.0000976,53.1591,163.9657,90.2306,268.3642,0,U,58719,999,383,-.64339E-1,-.2221928E-1,0
STARLINK-31027,2024-002R,2024-01-20T22:00:00.999936,15.38798182,.0001301,53.1587,162.3813,68.8034,345.6350,0,U,58720,999,384,-.62724E-1,-.2192557E-1,0
